STARLINK-5493           
1 55333U 23013C   26182.60831211  .00000168  00000+0  15646-4 0  9999
2 55333  43.0074  20.2474 0001840 271.0334  89.0307 15.27576888189092
STARLINK-5652           
1 55334U 23013D   26182.27750644  .00000836  00000+0  39896-4 0  9998
2 55334  43.0057  21.9622 0001616 266.1116  93.9551 15.27576913189040
STARLINK-5660           
1 55335U 23013E   26182.61216692  .00000134  00000+0  14393-4 0  9993
2 55335  43.0057  20.2724 0001479 267.1223  92.9459 15.27578046189093
STARLINK-5655           
1 55336U 23013F   26182.20877396 -.00000653  00000+0 -14221-4 0  9991
2 55336  43.0053   7.5971 0000883 260.7634  99.3118 15.27583970189203
STARLINK-5667           
1 55337U 23013G   26182.49986642 -.00000999  00000+0 -26744-4 0  9994
2 55337  43.0044   6.3846 0001956 250.7841 109.2799 15.27589134189241
STARLINK-5658           
1 55338U 23013H   26182.61602013  .00000447  00000+0  25796-4 0  9998
2 55338  43.0059  20.3019 0001789 270.5553  89.5094 15.27578297189099
STARLINK-5671           
1 55339U 23013J   26182.61038999 -.00000119  00000+0  51895-5 0  9992
2 55339  43.0050  23.6707 0001165 271.0600  89.0118 15.27576877189058
STARLINK-5675           
1 55340U 23013K   26182.24925822  .00001755  00000+0  73292-4 0  9993
2 55340  43.0029  21.8512 0001304 272.0994  87.9708 15.27573843189043
STARLINK-5670           
1 55341U 23013L   26181.89934797  .00001940  00000+0  79995-4 0  9997
2 55341  43.0051  24.3821 0001662 259.2210 100.8455 15.27587162188980
STARLINK-5657           
1 55342U 23013M   26181.96858059  .00001289  00000+0  56359-4 0  9997
2 55342  43.0038  24.0376 0001562 269.0879  90.9794 15.27578255188996
STARLINK-5661           
1 55343U 23013N   26182.23897102  .00000903  00000+0  42336-4 0  9993
2 55343  43.0029  21.7734 0001443 269.3861  90.6825 15.27582063189042
STARLINK-5653           
1 55345U 23013Q   26182.49217253 -.00000228  00000+0  12215-5 0  9991
2 55345  43.0037   6.3544 0001006 275.4502  84.6235 15.27574916189244
STARLINK-5631           
1 55346U 23013R   26182.24283149  .00000403  00000+0  24177-4 0  9995
2 55346  43.0027  21.7942 0001044 266.5797  93.4935 15.27577748189045
STARLINK-5663           
1 55347U 23013S   26182.24154451  .00000350  00000+0  22230-4 0  9998
2 55347  43.0024  21.7877 0001431 253.7415 106.3279 15.27578506189043
STARLINK-5609           
1 55348U 23013T   26181.99156953 -.00003744  00000+0 -12656-3 0  9991
2 55348  43.0034  23.3483 0001155 262.8196  97.2525 15.27589748189004
STARLINK-5666           
1 55349U 23013U   26182.25696487  .00001922  00000+0  79321-4 0  9990
2 55349  43.0054  21.9061 0001098 277.0961  82.9765 15.27587832189040
STARLINK-5668           
1 55350U 23013V   26181.97614424  .00000462  00000+0  26319-4 0  9998
2 55350  43.0031  23.2324 0001419 260.4802  99.5890 15.27577251189004
STARLINK-5659           
1 55351U 23013W   26182.25178721  .00016181  00000+0  59672-3 0  9998
2 55351  43.0073  21.8615 0000632 310.6272  49.4525 15.27553704189043
STARLINK-5547           
1 55352U 23013X   26182.26773471  .00000641  00000+0  32847-4 0  9993
2 55352  43.0035  18.5789 0002092 302.9109  57.1541 15.27577891189083
STARLINK-5608           
1 55353U 23013Y   26181.92281500  .00000084  00000+0  12577-4 0  9992
2 55353  43.0042  20.2847 0001248 270.5623  89.5086 15.27576806189033
STARLINK-5649           
1 55354U 23013Z   26182.24796987  .00000451  00000+0  25907-4 0  9998
2 55354  43.0018  21.8371 0001178 265.1108  94.9609 15.27578547189042
STARLINK-5647           
1 55355U 23013AA  26182.52494172 -.00000411  00000+0 -53938-5 0  9995
2 55355  43.0062  20.4555 0001930 272.4989  87.5642 15.27558507189077
STARLINK-5651           
1 55357U 23013AC  26182.25953960  .00000175  00000+0  15871-4 0  9990
2 55357  43.0056  21.9152 0001434 271.0446  89.0241 15.27579127189043
STARLINK-5622           
1 55358U 23013AD  26182.25567608  .00000610  00000+0  31680-4 0  9991
2 55358  43.0048  21.8914 0001255 270.0286  90.0422 15.27580463189040
STARLINK-5641           
1 55359U 23013AE  26182.26932117  .00000545  00000+0  29347-4 0  9998
2 55359  43.0052  25.4069 0001179 268.0258  92.0459 15.27575675189005
STARLINK-5664           
1 55360U 23013AF  26182.65213574  .00001350  00000+0  58571-4 0  9998
2 55360  43.0052  37.8118 0001450 276.7623  83.3064 15.27579272188891
STARLINK-5665           
1 55361U 23013AG  26182.52158144  .00000831  00000+0  39718-4 0  9991
2 55361  43.0036   5.7340 0001481 258.3532 101.7154 15.27579273189251
STARLINK-5574           
1 55362U 23013AH  26182.51515548  .00000772  00000+0  37570-4 0  9994
2 55362  43.0048   5.6913 0001659 270.2990  89.7672 15.27580940189251
STARLINK-5627           
1 55364U 23013AK  26182.26546363  .00000479  00000+0  26920-4 0  9998
2 55364  43.0048  25.3768 0001319 270.0475  90.0226 15.27579692189004
STARLINK-5639           
1 55365U 23013AL  26182.64444632 -.00000846  00000+0 -21208-4 0  9991
2 55365  43.0046  37.7604 0001480 234.3770 125.6944 15.27573066188896
