OBJECT_NAME,OBJECT_ID,EPOCH,MEAN_MOTION,ECCENTRICITY,INCLINATION,RA_OF_ASC_NODE,ARG_OF_PERICENTER,MEAN_ANOMALY,EPHEMERIS_TYPE,CLASSIFICATION_TYPE,NORAD_CAT_ID,ELEMENT_SET_NO,REV_AT_EPOCH,BSTAR,MEAN_MOTION_DOT,MEAN_MOTION_DDOT
STARLINK-5493,2023-013C,2026-07-01T14:35:58.166304,15.27576888,.00018406,43.0074,20.2474,271.0334,89.0307,0,U,55333,999,18909,.15646097E-4,.168E-5,0
STARLINK-5652,2023-013D,2026-07-01T06:39:36.556416,15.27576913,.0001616,43.0057,21.9622,266.1116,93.9551,0,U,55334,999,18904,.39896E-4,.836E-5,0
STARLINK-5660,2023-013E,2026-07-01T14:41:31.221888,15.27578046,.00014799,43.0057,20.2724,267.1223,92.9459,0,U,55335,999,18909,.14393396E-4,.134E-5,0
STARLINK-5655,2023-013F,2026-07-01T05:00:38.070144,15.27583970,.0000883,43.0053,7.5971,260.7634,99.3118,0,U,55336,999,18920,-.14221E-4,-.653E-5,0
STARLINK-5667,2023-013G,2026-07-01T11:59:48.458688,15.27589134,.00019566,43.0044,6.3846,250.7841,109.2799,0,U,55337,999,18924,-.26743769E-4,-.999E-5,0
STARLINK-5658,2023-013H,2026-07-01T14:47:04.139232,15.27578297,.00017893,43.0059,20.3019,270.5553,89.5094,0,U,55338,999,18909,.25795708E-4,.447E-5,0
STARLINK-5671,2023-013J,2026-07-01T14:38:57.695136,15.27576877,.00011659,43.0050,23.6707,271.0600,89.0118,0,U,55339,999,18905,.518952E-5,-.119E-5,0
STARLINK-5675,2023-013K,2026-07-01T05:58:55.910208,15.27573843,.0001304,43.0029,21.8512,272.0994,87.9708,0,U,55340,999,18904,.73292E-4,.1755E-4,0
STARLINK-5670,2023-013L,2026-06-30T21:35:03.664608,15.27587162,.0001662,43.0051,24.3821,259.2210,100.8455,0,U,55341,999,18898,.79995E-4,.194E-4,0
STARLINK-5657,2023-013M,2026-06-30T23:14:45.362976,15.27578255,.00015622,43.0038,24.0376,269.0879,90.9794,0,U,55342,999,18899,.5635896E-4,.1289E-4,0
STARLINK-5661,2023-013N,2026-07-01T05:44:07.096128,15.27582063,.0001443,43.0029,21.7734,269.3861,90.6825,0,U,55343,999,18904,.42336E-4,.903E-5,0
STARLINK-5653,2023-013Q,2026-07-01T11:48:43.706592,15.27574916,.00010065,43.0037,6.3544,275.4502,84.6235,0,U,55345,999,18924,.1221486E-5,-.228E-5,0
STARLINK-5631,2023-013R,2026-07-01T05:49:40.640736,15.27577748,.0001044,43.0027,21.7942,266.5797,93.4935,0,U,55346,999,18904,.24177E-4,.403E-5,0
STARLINK-5663,2023-013S,2026-07-01T05:47:49.445664,15.27578506,.0001431,43.0024,21.7877,253.7415,106.3279,0,U,55347,999,18904,.2223E-4,.35E-5,0
STARLINK-5609,2023-013T,2026-06-30T23:47:51.607392,15.27589748,.00011553,43.0034,23.3483,262.8196,97.2525,0,U,55348,999,18900,-.12656195E-3,-.3744E-4,0
STARLINK-5666,2023-013U,2026-07-01T06:10:01.764768,15.27587832,.0001098,43.0054,21.9061,277.0961,82.9765,0,U,55349,999,18904,.79321E-4,.1922E-4,0
STARLINK-5668,2023-013V,2026-06-30T23:25:38.862336,15.27577251,.00014192,43.0031,23.2324,260.4802,99.5890,0,U,55350,999,18900,.26319036E-4,.462E-5,0
STARLINK-5659,2023-013W,2026-07-01T06:02:34.414944,15.27553704,.0000632,43.0073,21.8615,310.6272,49.4525,0,U,55351,999,18904,.59672E-3,.16181E-3,0
STARLINK-5547,2023-013X,2026-07-01T06:25:32.278944,15.27577891,.0002092,43.0035,18.5789,302.9109,57.1541,0,U,55352,999,18908,.32847E-4,.641E-5,0
STARLINK-5608,2023-013Y,2026-06-30T22:08:51.216000,15.27576806,.00012487,43.0042,20.2847,270.5623,89.5086,0,U,55353,999,18903,.12577347E-4,.84E-6,0
STARLINK-5649,2023-013Z,2026-07-01T05:57:04.596768,15.27578547,.0001178,43.0018,21.8371,265.1108,94.9609,0,U,55354,999,18904,.25907E-4,.451E-5,0
STARLINK-5647,2023-013AA,2026-07-01T12:35:54.964608,15.27558507,.00019309,43.0062,20.4555,272.4989,87.5642,0,U,55355,999,18907,-.5393846E-5,-.411E-5,0
STARLINK-5651,2023-013AC,2026-07-01T06:13:44.221440,15.27579127,.00014341,43.0056,21.9152,271.0446,89.0241,0,U,55357,999,18904,.15870964E-4,.175E-5,0
STARLINK-5622,2023-013AD,2026-07-01T06:08:10.413312,15.27580463,.0001255,43.0048,21.8914,270.0286,90.0422,0,U,55358,999,18904,.3168E-4,.61E-5,0
STARLINK-5641,2023-013AE,2026-07-01T06:27:49.349088,15.27575675,.0001179,43.0052,25.4069,268.0258,92.0459,0,U,55359,999,18900,.29347E-4,.545E-5,0
STARLINK-5664,2023-013AF,2026-07-01T15:39:04.527936,15.27579272,.00014501,43.0052,37.8118,276.7623,83.3064,0,U,55360,999,18889,.58570677E-4,.135E-4,0
STARLINK-5665,2023-013AG,2026-07-01T12:31:04.636416,15.27579273,.00014811,43.0036,5.7340,258.3532,101.7154,0,U,55361,999,18925,.39717569E-4,.831E-5,0
STARLINK-5574,2023-013AH,2026-07-01T12:21:49.433472,15.27580940,.0001659,43.0048,5.6913,270.2990,89.7672,0,U,55362,999,18925,.37570439E-4,.772E-5,0
STARLINK-5627,2023-013AK,2026-07-01T06:22:16.057632,15.27579692,.0001319,43.0048,25.3768,270.0475,90.0226,0,U,55364,999,18900,.2692E-4,.479E-5,0
STARLINK-5639,2023-013AL,2026-07-01T15:28:00.162048,15.27573066,.00014809,43.0046,37.7604,234.3770,125.6944,0,U,55365,999,18889,-.21207906E-4,-.846E-5,0
